{
    "links": {
        "self": "http://www.neowsapp.com/rest/v1/neo/3766439?api_key=iIulBulltgU6a56xZRHN4H3l9WmuAYTsLGpBGhQ2"
    },
    "id": "3766439",
    "neo_reference_id": "3766439",
    "name": "(2017 AP13)",
    "designation": "2017 AP13",
    "nasa_jpl_url": "http://ssd.jpl.nasa.gov/sbdb.cgi?sstr=3766439",
    "absolute_magnitude_h": 23.2,
    "estimated_diameter": {
        "kilometers": {
            "estimated_diameter_min": 0.0608912622,
            "estimated_diameter_max": 0.1361570015
        },
        "meters": {
            "estimated_diameter_min": 60.8912622106,
            "estimated_diameter_max": 136.1570015386
        },
        "miles": {
            "estimated_diameter_min": 0.0378360645,
            "estimated_diameter_max": 0.0846040122
        },
        "feet": {
            "estimated_diameter_min": 199.7744887109,
            "estimated_diameter_max": 446.7093369279
        }
    },
    "is_potentially_hazardous_asteroid": false,
    "close_approach_data": [
        {
            "close_approach_date": "2017-01-18",
            "close_approach_date_full": "2017-Jan-18 16:41",
            "epoch_date_close_approach": 1484757660000,
            "relative_velocity": {
                "kilometers_per_second": "12.9547136401",
                "kilometers_per_hour": "46636.9691043776",
                "miles_per_hour": "28978.3989415507"
            },
            "miss_distance": {
                "astronomical": "0.079555383",
                "lunar": "30.947043987",
                "kilometers": "11901315.84383421",
                "miles": "7395134.748403698"
            },
            "orbiting_body": "Earth"
        }
    ],
    "orbital_data": {
        "orbit_id": "7",
        "orbit_determination_date": "2017-04-06 08:21:04",
        "first_observation_date": "2017-01-07",
        "last_observation_date": "2017-01-27",
        "data_arc_in_days": 20,
        "observations_used": 35,
        "orbit_uncertainty": "8",
        "minimum_orbit_intersection": ".0776555",
        "jupiter_tisserand_invariant": "3.011",
        "epoch_osculation": "2457765.5",
        "eccentricity": ".6505755342911174",
        "semi_major_axis": "2.688252244136503",
        "inclination": "9.80859366763617",
        "ascending_node_longitude": "277.2746324844632",
        "orbital_period": "1609.916874120789",
        "perihelion_distance": ".9393411040981025",
        "perihelion_argument": "240.7152692646365",
        "aphelion_distance": "4.437163384174904",
        "perihelion_time": "2457801.370169651842",
        "mean_anomaly": "351.9789268115378",
        "mean_motion": ".2236140298837503",
        "equinox": "J2000",
        "orbit_class": {
            "orbit_class_type": "APO",
            "orbit_class_description": "Near-Earth asteroid orbits which cross the Earth’s orbit similar to that of 1862 Apollo",
            "orbit_class_range": "a (semi-major axis) > 1.0 AU; q (perihelion) < 1.017 AU"
        }
    },
    "is_sentry_object": false
}